{"type": "FeatureCollection", "features": [ {"type": "Feature", "properties": {"norad_id": 66895, "name": "STARLINK-35971", "group": "last-30-days", "lat": -10.673536122143757, "lon": 60.88636507005904, "alt_km": 296.1524913558742, "timestamp": "2025-12-13T16:48:31.467610+00:00", "meta": {"OBJECT_NAME": "STARLINK-35971", "OBJECT_ID": "2025-283T", "EPOCH": "2025-12-12T20:00:01.999872", "MEAN_MOTION": 15.95188278, "ECCENTRICITY": 0.00011295, "INCLINATION": 53.1541, "RA_OF_ASC_NODE": 73.4435, "ARG_OF_PERICENTER": 54.1189, "MEAN_ANOMALY": 354.2414, "EPHEMERIS_TYPE": 0, "CLASSIFICATION_TYPE": "U", "NORAD_CAT_ID": 66895, "ELEMENT_SET_NO": 999, "REV_AT_EPOCH": 244, "BSTAR": -0.003357817, "MEAN_MOTION_DOT": -0.01347339, "MEAN_MOTION_DDOT": 0.00054286945}, "tle": {"line1": "1 66895U 25283T   25346.83335648 -.01347339  54287-3 -33578-2 0  9993", "line2": "2 66895  53.1541  73.4435 0001129  54.1189 354.2414 15.95188278  2449"}}, "geometry": {"type": "Point", "coordinates": [60.88636507005904, -10.673536122143757]}}, {"type": "Feature", "properties": {"norad_id": 66896, "name": "STARLINK-35791", "group": "last-30-days", "lat": -12.474885039223217, "lon": 59.466556431416514, "alt_km": 296.3917161379586, "timestamp": "2025-12-13T16:48:31.467620+00:00", "meta": {"OBJECT_NAME": "STARLINK-35791", "OBJECT_ID": "2025-283U", "EPOCH": "2025-12-12T20:00:01.999872", "MEAN_MOTION": 15.95134187, "ECCENTRICITY": 9.46e-05, "INCLINATION": 53.1542, "RA_OF_ASC_NODE": 73.4478, "ARG_OF_PERICENTER": 57.418, "MEAN_ANOMALY": 348.8598, "EPHEMERIS_TYPE": 0, "CLASSIFICATION_TYPE": "U", "NORAD_CAT_ID": 66896, "ELEMENT_SET_NO": 999, "REV_AT_EPOCH": 244, "BSTAR": -0.0033975717, "MEAN_MOTION_DOT": -0.0135915, "MEAN_MOTION_DDOT": 0.00055127598}, "tle": {"line1": "1 66896U 25283U   25346.83335648 -.01359150  55128-3 -33976-2 0  9995", "line2": "2 66896  53.1542  73.4478 0000946  57.4180 348.8598 15.95134187  2443"}}, "geometry": {"type": "Point", "coordinates": [59.466556431416514, -12.474885039223217]}}, {"type": "Feature", "properties": {"norad_id": 66897, "name": "STARLINK-36079", "group": "last-30-days", "lat": -8.581407405311685, "lon": 62.508795868478074, "alt_km": 295.70781093009646, "timestamp": "2025-12-13T16:48:31.467632+00:00", "meta": {"OBJECT_NAME": "STARLINK-36079", "OBJECT_ID": "2025-283V", "EPOCH": "2025-12-12T20:00:01.999872", "MEAN_MOTION": 15.95262669, "ECCENTRICITY": 0.00010365, "INCLINATION": 53.1542, "RA_OF_ASC_NODE": 73.4388, "ARG_OF_PERICENTER": 49.0284, "MEAN_ANOMALY": 1.7625, "EPHEMERIS_TYPE": 0, "CLASSIFICATION_TYPE": "U", "NORAD_CAT_ID": 66897, "ELEMENT_SET_NO": 999, "REV_AT_EPOCH": 244, "BSTAR": -0.0033714368, "MEAN_MOTION_DOT": -0.01358091, "MEAN_MOTION_DDOT": 0.00055121099}, "tle": {"line1": "1 66897U 25283V   25346.83335648 -.01358091  55121-3 -33714-2 0  9992", "line2": "2 66897  53.1542  73.4388 0001036  49.0284   1.7625 15.95262669  2440"}}, "geometry": {"type": "Point", "coordinates": [62.508795868478074, -8.581407405311685]}}, {"type": "Feature", "properties": {"norad_id": 66898, "name": "STARLINK-36065", "group": "last-30-days", "lat": -6.528304838872225, "lon": 64.07751387045018, "alt_km": 295.27297183750215, "timestamp": "2025-12-13T16:48:31.467645+00:00", "meta": {"OBJECT_NAME": "STARLINK-36065", "OBJECT_ID": "2025-283W", "EPOCH": "2025-12-12T20:00:01.999872", "MEAN_MOTION": 15.9534399, "ECCENTRICITY": 0.00011638, "INCLINATION": 53.1538, "RA_OF_ASC_NODE": 73.4333, "ARG_OF_PERICENTER": 50.4139, "MEAN_ANOMALY": 2.7554, "EPHEMERIS_TYPE": 0, "CLASSIFICATION_TYPE": "U", "NORAD_CAT_ID": 66898, "ELEMENT_SET_NO": 999, "REV_AT_EPOCH": 244, "BSTAR": -0.0034077055, "MEAN_MOTION_DOT": -0.013785, "MEAN_MOTION_DDOT": 0.00056688426}, "tle": {"line1": "1 66898U 25283W   25346.83335648 -.01378500  56688-3 -34077-2 0  9992", "line2": "2 66898  53.1538  73.4333 0001163  50.4139   2.7554 15.95343990  2441"}}, "geometry": {"type": "Point", "coordinates": [64.07751387045018, -6.528304838872225]}}, {"type": "Feature", "properties": {"norad_id": 66899, "name": "STARLINK-36064", "group": "last-30-days", "lat": -4.589141314834297, "lon": 65.54477699896104, "alt_km": 294.8565287901365, "timestamp": "2025-12-13T16:48:31.467656+00:00", "meta": {"OBJECT_NAME": "STARLINK-36064", "OBJECT_ID": "2025-283X", "EPOCH": "2025-12-12T20:00:01.999872", "MEAN_MOTION": 15.9541096, "ECCENTRICITY": 0.00011235, "INCLINATION": 53.1538, "RA_OF_ASC_NODE": 73.4289, "ARG_OF_PERICENTER": 51.7637, "MEAN_ANOMALY": 3.6315, "EPHEMERIS_TYPE": 0, "CLASSIFICATION_TYPE": "U", "NORAD_CAT_ID": 66899, "ELEMENT_SET_NO": 999, "REV_AT_EPOCH": 238, "BSTAR": -0.0034005706, "MEAN_MOTION_DOT": -0.01380565, "MEAN_MOTION_DDOT": 0.00056882068}, "tle": {"line1": "1 66899U 25283X   25346.83335648 -.01380565  56882-3 -34006-2 0  9995", "line2": "2 66899  53.1538  73.4289 0001123  51.7637   3.6315 15.95410960  2385"}}, "geometry": {"type": "Point", "coordinates": [65.54477699896104, -4.589141314834297]}}, {"type": "Feature", "properties": {"norad_id": 66900, "name": "STARLINK-36074", "group": "last-30-days", "lat": -2.5299035196125734, "lon": 67.09135126739292, "alt_km": 294.34123749714763, "timestamp": "2025-12-13T16:48:31.467666+00:00", "meta": {"OBJECT_NAME": "STARLINK-36074", "OBJECT_ID": "2025-283Y", "EPOCH": "2025-12-12T20:00:01.999872", "MEAN_MOTION": 15.9547308, "ECCENTRICITY": 0.00011554, "INCLINATION": 53.1539, "RA_OF_ASC_NODE": 73.4238, "ARG_OF_PERICENTER": 53.1504, "MEAN_ANOMALY": 4.5983, "EPHEMERIS_TYPE": 0, "CLASSIFICATION_TYPE": "U", "NORAD_CAT_ID": 66900, "ELEMENT_SET_NO": 999, "REV_AT_EPOCH": 244, "BSTAR": -0.0033605195, "MEAN_MOTION_DOT": -0.01369041, "MEAN_MOTION_DDOT": 0.00056053925}, "tle": {"line1": "1 66900U 25283Y   25346.83335648 -.01369041  56054-3 -33605-2 0  9999", "line2": "2 66900  53.1539  73.4238 0001155  53.1504   4.5983 15.95473080  2447"}}, "geometry": {"type": "Point", "coordinates": [67.09135126739292, -2.5299035196125734]}}, {"type": "Feature", "properties": {"norad_id": 66901, "name": "STARLINK-36043", "group": "last-30-days", "lat": -0.7433924422619308, "lon": 68.42800105605114, "alt_km": 293.86776074759564, "timestamp": "2025-12-13T16:48:31.467677+00:00", "meta": {"OBJECT_NAME": "STARLINK-36043", "OBJECT_ID": "2025-283Z", "EPOCH": "2025-12-12T20:00:01.999872", "MEAN_MOTION": 15.9554464, "ECCENTRICITY": 0.000123, "INCLINATION": 53.154, "RA_OF_ASC_NODE": 73.4196, "ARG_OF_PERICENTER": 51.3214, "MEAN_ANOMALY": 8.4562, "EPHEMERIS_TYPE": 0, "CLASSIFICATION_TYPE": "U", "NORAD_CAT_ID": 66901, "ELEMENT_SET_NO": 999, "REV_AT_EPOCH": 244, "BSTAR": -0.0033656815, "MEAN_MOTION_DOT": -0.01376381, "MEAN_MOTION_DDOT": 0.0005664467}, "tle": {"line1": "1 66901U 25283Z   25346.83335648 -.01376381  56645-3 -33657-2 0  9998", "line2": "2 66901  53.1540  73.4196 0001230  51.3214   8.4562 15.95544640  2442"}}, "geometry": {"type": "Point", "coordinates": [68.42800105605114, -0.7433924422619308]}}, {"type": "Feature", "properties": {"norad_id": 66902, "name": "STARLINK-35983", "group": "last-30-days", "lat": 1.4413923346927946, "lon": 70.06136038708513, "alt_km": 293.4926889087701, "timestamp": "2025-12-13T16:48:31.467686+00:00", "meta": {"OBJECT_NAME": "STARLINK-35983", "OBJECT_ID": "2025-283AA", "EPOCH": "2025-12-12T20:00:01.999872", "MEAN_MOTION": 15.9562513, "ECCENTRICITY": 0.00010445, "INCLINATION": 53.1538, "RA_OF_ASC_NODE": 73.4147, "ARG_OF_PERICENTER": 55.1965, "MEAN_ANOMALY": 7.0939, "EPHEMERIS_TYPE": 0, "CLASSIFICATION_TYPE": "U", "NORAD_CAT_ID": 66902, "ELEMENT_SET_NO": 999, "REV_AT_EPOCH": 244, "BSTAR": -0.0033861084, "MEAN_MOTION_DOT": -0.0139057, "MEAN_MOTION_DDOT": 0.00057762354}, "tle": {"line1": "1 66902U 25283AA  25346.83335648 -.01390570  57762-3 -33861-2 0  9993", "line2": "2 66902  53.1538  73.4147 0001044  55.1965   7.0939 15.95625130  2441"}}, "geometry": {"type": "Point", "coordinates": [70.06136038708513, 1.4413923346927946]}}, {"type": "Feature", "properties": {"norad_id": 66903, "name": "STARLINK-36077", "group": "last-30-days", "lat": 3.190477442146281, "lon": 71.37119345254192, "alt_km": 292.9433817529971, "timestamp": "2025-12-13T16:48:31.467696+00:00", "meta": {"OBJECT_NAME": "STARLINK-36077", "OBJECT_ID": "2025-283AB", "EPOCH": "2025-12-12T20:00:01.999872", "MEAN_MOTION": 15.95680747, "ECCENTRICITY": 0.00011741, "INCLINATION": 53.1541, "RA_OF_ASC_NODE": 73.4104, "ARG_OF_PERICENTER": 51.3041, "MEAN_ANOMALY": 12.9781, "EPHEMERIS_TYPE": 0, "CLASSIFICATION_TYPE": "U", "NORAD_CAT_ID": 66903, "ELEMENT_SET_NO": 999, "REV_AT_EPOCH": 244, "BSTAR": -0.0033545394, "MEAN_MOTION_DOT": -0.01381892, "MEAN_MOTION_DDOT": 0.00057138367}, "tle": {"line1": "1 66903U 25283AB  25346.83335648 -.01381892  57138-3 -33545-2 0  9997", "line2": "2 66903  53.1541  73.4104 0001174  51.3041  12.9781 15.95680747  2441"}}, "geometry": {"type": "Point", "coordinates": [71.37119345254192, 3.190477442146281]}}, {"type": "Feature", "properties": {"norad_id": 66904, "name": "STARLINK-36059", "group": "last-30-days", "lat": 5.03051945186701, "lon": 72.75545671707027, "alt_km": 292.51706113124055, "timestamp": "2025-12-13T16:48:31.467706+00:00", "meta": {"OBJECT_NAME": "STARLINK-36059", "OBJECT_ID": "2025-283AC", "EPOCH": "2025-12-12T20:00:01.999872", "MEAN_MOTION": 15.95755621, "ECCENTRICITY": 0.00011979, "INCLINATION": 53.1538, "RA_OF_ASC_NODE": 73.4059, "ARG_OF_PERICENTER": 52.6951, "MEAN_ANOMALY": 13.6936, "EPHEMERIS_TYPE": 0, "CLASSIFICATION_TYPE": "U", "NORAD_CAT_ID": 66904, "ELEMENT_SET_NO": 999, "REV_AT_EPOCH": 244, "BSTAR": -0.0033775255, "MEAN_MOTION_DOT": -0.01396835, "MEAN_MOTION_DDOT": 0.00058315835}, "tle": {"line1": "1 66904U 25283AC  25346.83335648 -.01396835  58316-3 -33775-2 0  9995", "line2": "2 66904  53.1538  73.4059 0001197  52.6951  13.6936 15.95755621  2440"}}, "geometry": {"type": "Point", "coordinates": [72.75545671707027, 5.03051945186701]}}]}